GALAXY 34 (G-34)        
1 54027U 22128B   26178.63816764  .00000070  00000+0  00000+0 0  9993
2 54027   0.0109  47.2821 0002037  54.1420 275.0568  1.00275912 14018
ANGOSAT 2               
1 54033U 22131A   26179.00511017  .00000147  00000+0  00000+0 0  9994
2 54033   0.0198  88.3836 0000574  22.4301 190.1298  1.00270961 13582
EUTELSAT HOTBIRD 13F    
1 54048U 22134A   26178.90867190  .00000099  00000+0  00000+0 0  9993
2 54048   0.0483 293.2379 0001789  74.4749 248.4450  1.00272285 13483
LDPE-2                  
1 54219U 22144A   26178.62707481  .00000114  00000+0  00000+0 0  9997
2 54219   5.6375  63.5693 0002097  92.3864 197.9369  1.00538101 11949
EUTELSAT HOTBIRD 13G    
1 54225U 22146A   26178.90867221  .00000099  00000+0  00000+0 0  9998
2 54225   0.0552 209.2687 0002239 323.3040  83.5575  1.00271960  7575
ZHONGXING-19            
1 54230U 22148A   26178.90980917 -.00000069  00000+0  00000+0 0  9992
2 54230   0.0344  79.3476 0002881  35.4837 291.9221  1.00272773 13483
GALAXY 31 (G-31)        
1 54243U 22153A   26178.59931073  .00000000  00000+0  00000+0 0  9990
2 54243   0.0211  30.6790 0001646  71.5176 268.2581  1.00270084  7239
GALAXY 32 (G-32)        
1 54244U 22153B   26178.57440567 -.00000163  00000+0  00000+0 0  9993
2 54244   0.0141  35.2908 0002074  12.2647 343.9156  1.00271878 13244
EUTELSAT 10B            
1 54259U 22157A   26178.92197712  .00000078  00000+0  00000+0 0  9997
2 54259   0.0615  97.1674 0002219  25.4266 135.3125  1.00258684 13134
GALAXY 35 (G-35)        
1 54741U 22170A   26178.93042633  .00000000  00000+0  00000+0 0  9995
2 54741   0.0208  22.1820 0002216  74.6293  61.0652  1.00269366 13007
GALAXY 36 (G-36)        
1 54742U 22170B   26178.93120633 -.00000173  00000+0  00000+0 0  9995
2 54742   0.0347 115.3952 0002895 334.7360  72.1392  1.00271357 12883
METEOSAT-12 (MTG-I1)    
1 54743U 22170C   26178.92753183  .00000004  00000+0  00000+0 0  9999
2 54743   0.7500  24.6820 0003680  72.2185 152.7271  1.00275638 13080
SHIJIAN-23 (SJ-23)      
1 55131U 23002A   26178.77793653 -.00000291  00000+0  00000+0 0  9994
2 55131   3.7440  78.1872 0003679 279.8382 338.9700  1.00085512 12614
APSTAR-6E               
1 55239U 23005A   26179.04661586 -.00000306  00000+0  00000+0 0  9993
2 55239   0.0391 246.5298 0000541 284.1699 256.2299  1.00270718 18790
USA 342                 
1 55263U 23008A   26176.29697652  .00000000  00000+0  00000+0 0  9990
2 55263   0.0025 336.7217 0000253 165.3803 262.0787  1.00268501 12597
LDPE-3A                 
1 55264U 23008B   26178.70494251  .00000037  00000+0  00000+0 0  9999
2 55264   2.3746  81.5450 0001513  51.6386 244.7712  0.99149011 11911
ELEKTRO-L 4             
1 55506U 23016A   26178.77316419 -.00000047  00000+0  00000+0 0  9995
2 55506   0.0852 147.8604 0001002  34.6191 177.5158  1.00271463 12433
AMAZONAS NEXUS          
1 55508U 23017A   26178.79418497 -.00000271  00000+0  00000+0 0  9998
2 55508   0.0369  38.9582 0005198  36.0630  65.7817  1.00270726  7151
ZHONGXING-26            
1 55686U 23023A   26177.26264867 -.00000342  00000+0  00000+0 0  9992
2 55686   0.0690  71.1877 0003378  21.9123  40.9482  1.00274356 12320
LUCH-5X (OLYMP-K 2)     
1 55841U 23031A   26178.77790110  .00000045  00000+0  00000+0 0  9995
2 55841   0.0327  83.1871 0001049 156.4346  18.2797  1.00269371 12048
GAOFEN-13 02            
1 55912U 23036A   26178.76435723 -.00000208  00000+0  00000+0 0  9996
2 55912   1.0224   2.4543 0003717 339.6404 357.1730  1.00269180 12194
SES-18                  
1 55970U 23038A   26178.92843299 -.00000089  00000+0  00000+0 0  9998
2 55970   0.0333 282.2870 0000645 222.6592   2.2179  1.00272231 12214
SES-19                  
1 55971U 23038B   26178.70823586  .00000099  00000+0  00000+0 0  9992
2 55971   0.0114 330.9048 0002000 127.5093 297.4518  1.00272933 12197
INTELSAT 40E (IS-40E)   
1 56174U 23052A   26178.57440567 -.00000163  00000+0  00000+0 0  9996
2 56174   0.0140  72.6232 0002414  53.0379 265.8092  1.00272189 11925
VIASAT-3 F1             
1 56370U 23060A   26178.78853735  .00000000  00000+0  00000+0 0  9990
2 56370   0.0218   3.6052 0001028 109.6900 357.4915  1.00268316 11548
ARCTURUS                
1 56371U 23060B   26177.89485947 -.00000176  00000+0  00000+0 0  9993
2 56371   2.7990  79.8193 0000384 207.4908  27.3984  1.00599177 11557
GS-1                    
1 56372U 23060C   26178.71873419 -.00000215  00000+0  00000+0 0  9995
2 56372   2.7521  79.7122 0003660 279.7624 264.5507  1.00271664  7645
BEIDOU-3 G4             
1 56564U 23066A   26178.98864326 -.00000269  00000+0  00000+0 0  9999
2 56564   0.4749 334.2493 0004870 175.4033 262.4025  1.00270753 11505
ARABSAT-7B (BADR-8)     
1 56757U 23075A   26178.88267295  .00000156  00000+0  00000+0 0  9998
2 56757   0.0748  29.1438 0004140   3.4239 227.1699  1.00271239 11225
NVS-01 (IRNSS-1J)       
1 56759U 23076A   26178.90322247 -.00000322  00000+0  00000+0 0  9999
2 56759   2.1414 243.8590 0002811  11.5835 115.2769  1.00274357 11228
NUSANTARA TIGA (SATRIA) 
1 57045U 23086A   26178.70612892 -.00000221  00000+0  00000+0 0  9993
2 57045   0.0352 358.1306 0002998 355.5570 322.3366  1.00280158  9860
