OBJECT_NAME,OBJECT_ID,EPOCH,MEAN_MOTION,ECCENTRICITY,INCLINATION,RA_OF_ASC_NODE,ARG_OF_PERICENTER,MEAN_ANOMALY,EPHEMERIS_TYPE,CLASSIFICATION_TYPE,NORAD_CAT_ID,ELEMENT_SET_NO,REV_AT_EPOCH,BSTAR,MEAN_MOTION_DOT,MEAN_MOTION_DDOT
GALAXY 34 (G-34),2022-128B,2026-06-27T15:18:57.684096,1.00275912,.00020371,0.0109,47.2821,54.1420,275.0568,0,U,54027,999,1401,0,.7E-6,0
ANGOSAT 2,2022-131A,2026-06-28T00:07:21.518688,1.00270961,.0000574,0.0198,88.3836,22.4301,190.1298,0,U,54033,999,1358,0,.147E-5,0
EUTELSAT HOTBIRD 13F,2022-134A,2026-06-27T21:48:29.252160,1.00272285,.00017897,0.0483,293.2379,74.4749,248.4450,0,U,54048,999,1348,0,.99E-6,0
LDPE-2,2022-144A,2026-06-27T15:02:59.263584,1.00538101,.00020978,5.6375,63.5693,92.3864,197.9369,0,U,54219,999,1194,0,.114E-5,0
EUTELSAT HOTBIRD 13G,2022-146A,2026-06-27T21:48:29.278944,1.00271960,.00022397,0.0552,209.2687,323.3040,83.5575,0,U,54225,999,757,0,.99E-6,0
ZHONGXING-19,2022-148A,2026-06-27T21:50:07.512288,1.00272773,.00028811,0.0344,79.3476,35.4837,291.9221,0,U,54230,999,1348,0,-.69E-6,0
GALAXY 31 (G-31),2022-153A,2026-06-27T14:23:00.447072,1.00270084,.00016465,0.0211,30.6790,71.5176,268.2581,0,U,54243,999,723,0,0,0
GALAXY 32 (G-32),2022-153B,2026-06-27T13:47:08.649888,1.00271878,.00020749,0.0141,35.2908,12.2647,343.9156,0,U,54244,999,1324,0,-.163E-5,0
EUTELSAT 10B,2022-157A,2026-06-27T22:07:38.823168,1.00258684,.00022199,0.0615,97.1674,25.4266,135.3125,0,U,54259,999,1313,0,.78E-6,0
GALAXY 35 (G-35),2022-170A,2026-06-27T22:19:48.834912,1.00269366,.00022167,0.0208,22.1820,74.6293,61.0652,0,U,54741,999,1300,0,0,0
GALAXY 36 (G-36),2022-170B,2026-06-27T22:20:56.226912,1.00271357,.00028951,0.0347,115.3952,334.7360,72.1392,0,U,54742,999,1288,0,-.173E-5,0
METEOSAT-12 (MTG-I1),2022-170C,2026-06-27T22:15:38.750112,1.00275638,.00036805,0.7500,24.6820,72.2185,152.7271,0,U,54743,999,1308,0,.4E-7,0
SHIJIAN-23 (SJ-23),2023-002A,2026-06-27T18:40:13.716192,1.00085512,.0003679,3.7440,78.1872,279.8382,338.9700,0,U,55131,999,1261,0,-.291E-5,0
APSTAR-6E,2023-005A,2026-06-28T01:07:07.610304,1.00270718,.0000541,0.0391,246.5298,284.1699,256.2299,0,U,55239,999,1879,0,-.306E-5,0
USA 342,2023-008A,2026-06-25T07:07:38.771328,1.00268501,.0000253,0.0025,336.7217,165.3803,262.0787,0,U,55263,999,1259,0,0,0
LDPE-3A,2023-008B,2026-06-27T16:55:07.032864,0.99149011,.00015131,2.3746,81.5450,51.6386,244.7712,0,U,55264,999,1191,0,.37E-6,0
ELEKTRO-L 4,2023-016A,2026-06-27T18:33:21.386016,1.00271463,.00010023,0.0852,147.8604,34.6191,177.5158,0,U,55506,999,1243,0,-.47E-6,0
AMAZONAS NEXUS,2023-017A,2026-06-27T19:03:37.581408,1.00270726,.0005198,0.0369,38.9582,36.0630,65.7817,0,U,55508,999,715,0,-.271E-5,0
ZHONGXING-26,2023-023A,2026-06-26T06:18:12.845088,1.00274356,.0003378,0.0690,71.1877,21.9123,40.9482,0,U,55686,999,1232,0,-.342E-5,0
LUCH-5X (OLYMP-K 2),2023-031A,2026-06-27T18:40:10.655040,1.00269371,.0001049,0.0327,83.1871,156.4346,18.2797,0,U,55841,999,1204,0,.45E-6,0
GAOFEN-13 02,2023-036A,2026-06-27T18:20:40.464672,1.00269180,.00037172,1.0224,2.4543,339.6404,357.1730,0,U,55912,999,1219,0,-.208E-5,0
SES-18,2023-038A,2026-06-27T22:16:56.610336,1.00272231,.00006457,0.0333,282.2870,222.6592,2.2179,0,U,55970,999,1221,0,-.89E-6,0
SES-19,2023-038B,2026-06-27T16:59:51.578304,1.00272933,.00020002,0.0114,330.9048,127.5093,297.4518,0,U,55971,999,1219,0,.99E-6,0
INTELSAT 40E (IS-40E),2023-052A,2026-06-27T13:47:08.649888,1.00272189,.00024144,0.0140,72.6232,53.0379,265.8092,0,U,56174,999,1192,0,-.163E-5,0
VIASAT-3 F1,2023-060A,2026-06-27T18:55:29.627040,1.00268316,.00010289,0.0218,3.6052,109.6900,357.4915,0,U,56370,999,1154,0,0,0
ARCTURUS,2023-060B,2026-06-26T21:28:35.858208,1.00599177,.0000384,2.7990,79.8193,207.4908,27.3984,0,U,56371,999,1155,0,-.176E-5,0
GS-1,2023-060C,2026-06-27T17:14:58.634016,1.00271664,.00036603,2.7521,79.7122,279.7624,264.5507,0,U,56372,999,764,0,-.215E-5,0
BEIDOU-3 G4,2023-066A,2026-06-27T23:43:38.777664,1.00270753,.00048702,0.4749,334.2493,175.4033,262.4025,0,U,56564,999,1150,0,-.269E-5,0
ARABSAT-7B (BADR-8),2023-075A,2026-06-27T21:11:02.942880,1.00271239,.000414,0.0748,29.1438,3.4239,227.1699,0,U,56757,999,1122,0,.156E-5,0
NVS-01 (IRNSS-1J),2023-076A,2026-06-27T21:40:38.421408,1.00274357,.00028116,2.1414,243.8590,11.5835,115.2769,0,U,56759,999,1122,0,-.322E-5,0
NUSANTARA TIGA (SATRIA),2023-086A,2026-06-27T16:56:49.538688,1.00280158,.00029984,0.0352,358.1306,355.5570,322.3366,0,U,57045,999,986,0,-.221E-5,0
